ARIANE 5 R/B            
1 28499U 04049H   26014.06162311  .00000910  00000+0  10682-3 0  9991
2 28499  98.2543 180.5079 0084626 167.3646 192.9716 14.85117898137686
CZ-2D R/B               
1 28738U 05024B   26014.04159378  .00020819  00000+0  30685-3 0  9993
2 28738  97.3629  27.3856 0004058 195.7668 164.3460 15.55421996131271
ALOS (DAICHI)           
1 28931U 06002A   26013.83353224  .00000953  00000+0  16872-3 0  9996
2 28931  98.1132 330.1044 0002139  91.7619 268.3831 14.69600799 65421
H-2A R/B                
1 28932U 06002B   26014.15034755  .00004691  00000+0  24429-3 0  9998
2 28932  98.2327 156.5676 0054457  67.3992 293.2987 15.15282027 86179
RESURS-DK 1             
1 29228U 06021A   26014.10905910  .00001483  00000+0  91485-4 0  9996
2 29228  69.9336  18.1708 0005848 230.7762 129.2885 15.12370399 79278
CZ-4B R/B               
1 29507U 06046C   26014.11043496  .00002901  00000+0  15123-3 0  9996
2 29507  97.5696  59.1619 0035318  96.4855 264.0400 15.16247875 51777
CZ-2C R/B               
1 31114U 07010B   26013.77443867  .00000073  00000+0  52137-4 0  9997
2 31114  98.3972 129.8135 0060145  93.9278 266.8778 14.20224298971929
COSMO-SKYMED 1          
1 31598U 07023A   26014.29695295  .00001635  00000+0  15092-3 0  9992
2 31598  97.8845 204.9167 0001271  74.8572 285.2790 14.96049086  6772
COSMOS 2428             
1 31792U 07029A   26014.09279327  .00000327  00000+0  20121-3 0  9992
2 31792  70.9397 317.9528 0005614 340.1276  19.9626 14.12909354956385
SL-16 R/B               
1 31793U 07029B   26014.21447245 -.00000247  00000+0 -10330-3 0  9997
2 31793  70.9764 286.8950 0002253 273.4839 248.3722 14.14824475957665
KORONAS-FOTON           
1 33504U 09003A   26013.62649474  .00007083  00000+0  16561-3 0  9990
2 33504  82.4317 333.0480 0011382   7.7643 352.3777 15.41888890937257
CZ-2C R/B               
1 37731U 11030B   26014.15071062  .00000810  00000+0  10890-3 0  9990
2 37731  97.8454 332.5500 0053007 166.2618 204.6241 14.81009159782029
H-2A R/B                
1 38341U 12025E   26014.17754701  .00002350  00000+0  21843-3 0  9994
2 38341  98.4637 336.9219 0046161 129.6107 230.9201 14.94676876740078
SHIJIAN-16 (SJ-16)      
1 39358U 13057A   26014.32368005  .00001970  00000+0  19592-3 0  9999
2 39358  74.9736 287.9963 0017827 244.4746 115.4599 14.92140155663399
SL-4 R/B                
1 39679U 14021B   26014.05830638  .00006219  00000+0  15099-3 0  9992
2 39679  51.6066 243.4353 0099403 263.4676  95.4983 15.37506630647868
ALOS-2                  
1 39766U 14029A   26013.93628078 -.00000088  00000+0 -48908-5 0  9993
2 39766  97.9202 113.3211 0001436  96.5947 263.5428 14.79478522628777
YAOGAN-29               
1 41038U 15069A   26014.34322080  .00000088  00000+0  17488-4 0  9999
2 41038  98.0203  42.6165 0002201 127.1867 232.9547 14.82922736547823
ASTRO-H (HITOMI)        
1 41337U 16012A   26014.15805275  .00002010  00000+0  11629-3 0  9998
2 41337  31.0011 348.3420 0009673 146.0736 214.0522 15.09590508543989
HXMT (HUIYAN)           
1 42758U 17034A   26014.26291279  .00003858  00000+0  20261-3 0  9999
2 42758  43.0159 319.0931 0033509 251.2735 108.4475 15.16701781474271
CZ-2C R/B               
1 43521U 18054D   26014.18699590  .00144033  00000+0  63711-3 0  9998
2 43521  35.1338 319.5538 0010388 124.7767 235.3948 15.82947201420186
SAOCOM 1A               
1 43641U 18076A   26014.27948527  .00000037  00000+0  11144-4 0  9991
2 43641  97.8854 203.2282 0001491  86.6184 273.5199 14.82147248393303
H-2A R/B                
1 43682U 18084L   26014.09136676  .00012197  00000+0  31726-3 0  9996
2 43682  98.8768 219.9134 0025935 212.0518 147.9147 15.38778771397379
SAOCOM 1B               
1 46265U 20059A   26014.31068630 -.00000265  00000+0 -26738-4 0  9993
2 46265  97.8851 202.3583 0001343  85.0990 275.0376 14.82146992290690
CSS (TIANHE)            
1 48274U 21035A   26014.23936438  .00012865  00000+0  15509-3 0  9991
2 48274  41.4651 179.1985 0011443 282.0781  77.8776 15.60498345269104
COSMOS 2550             
1 48865U 21056A   26014.26463363 -.00000175  00000+0  50019-6 0  9995
2 48865  67.1411 205.5546 0008344 269.0866  90.9332 15.33822042255116
CZ-2C R/B               
1 52794U 22058K   26014.05261590  .00013141  00000+0  22565-3 0  9997
2 52794  50.1889 238.5282 0042982 330.9001  28.9573 15.50445328201645
CZ-2C R/B               
1 54039U 22132E   26013.95598097  .00020439  00000+0  28119-3 0  9996
2 54039  97.2948  15.8255 0017070 297.8190  62.1335 15.57129171181840
GSLV R/B                
1 54149U 22138AN  26013.75746090  .00002059  00000+0  17884-3 0  9995
2 54149  87.3829 184.7492 0021520 357.6767   2.4361 14.96329913175712
XRISM                   
1 57800U 23137A   26014.08085211  .00003268  00000+0  18647-3 0  9991
2 57800  31.0023 276.6776 0007947 213.4316 146.5821 15.10759781129529
ACS3                    
1 59588U 24077B   26013.87139508  .00014880  00000+0  12508-1 0  9995
2 59588  97.2415 327.2961 0060007 256.4897 102.9574 13.87138315 86595
SZ-21 MODULE            
1 66515U 25246C   26013.73410762  .00022409  00000+0  22945-3 0  9995
2 66515  41.4739 180.5961 0001835 161.6783 198.4124 15.64448838  9450
